OBJECT_NAME,OBJECT_ID,EPOCH,MEAN_MOTION,ECCENTRICITY,INCLINATION,RA_OF_ASC_NODE,ARG_OF_PERICENTER,MEAN_ANOMALY,EPHEMERIS_TYPE,CLASSIFICATION_TYPE,NORAD_CAT_ID,ELEMENT_SET_NO,REV_AT_EPOCH,BSTAR,MEAN_MOTION_DOT,MEAN_MOTION_DDOT
SAUDISAT 1C (SO-50),2002-058C,2026-06-29T08:39:03.103776,14.83071475,.0074978,64.5520,91.3218,260.2054,99.0580,0,U,27607,999,26626,.12784E-3,.938E-5,0
SAUDISAT 2,2004-025F,2026-06-29T12:43:44.842368,14.56690572,.0023452,98.5509,180.8314,258.2811,101.5755,0,U,28371,999,16754,.65409E-4,.243E-5,0
SAUDISAT 3,2007-012B,2026-06-29T08:42:48.333024,14.71432216,.0014461,98.1461,130.7718,183.5271,176.5836,0,U,31118,999,2953,.49386E-4,.255E-5,0
PISAT,2016-059B,2026-06-29T12:59:01.262112,14.69004080,.0029434,97.8180,180.4629,163.1720,197.0470,0,U,41784,999,52155,.16531E-3,.928E-5,0
FLYING LAPTOP,2017-042G,2026-06-29T12:24:19.036800,15.01224086,.001997,97.4736,335.5789,82.2271,278.1220,0,U,42831,999,48830,.29208E-3,.3708E-4,0
SALSAT,2020-068K,2026-06-28T23:37:04.859328,15.29961615,.00078707,97.8845,183.7681,257.4321,102.6038,0,U,46495,999,31716,.23731316E-3,.6804E-4,0
