SAUDISAT 1C (SO-50)     
1 27607U 02058C   26180.36045259  .00000938  00000+0  12784-3 0  9992
2 27607  64.5520  91.3218 0074978 260.2054  99.0580 14.83071475266267
SAUDISAT 2              
1 28371U 04025F   26180.53038012  .00000243  00000+0  65409-4 0  9997
2 28371  98.5509 180.8314 0023452 258.2811 101.5755 14.56690572167549
SAUDISAT 3              
1 31118U 07012B   26180.36305941  .00000255  00000+0  49386-4 0  9997
2 31118  98.1461 130.7718 0014461 183.5271 176.5836 14.71432216 29531
PISAT                   
1 41784U 16059B   26180.54098683  .00000928  00000+0  16531-3 0  9992
2 41784  97.8180 180.4629 0029434 163.1720 197.0470 14.69004080521559
FLYING LAPTOP           
1 42831U 17042G   26180.51688700  .00003708  00000+0  29208-3 0  9995
2 42831  97.4736 335.5789 0019970  82.2271 278.1220 15.01224086488308
SALSAT                  
1 46495U 20068K   26179.98408402  .00006804  00000+0  23731-3 0  9990
2 46495  97.8845 183.7681 0007870 257.4321 102.6038 15.29961615317164
